[{"OBJECT_NAME":"STARLINK-35022","OBJECT_ID":"2025-192F","EPOCH":"2026-02-22T01:40:40.676736","MEAN_MOTION":15.39716013,"ECCENTRICITY":0.000113,"INCLINATION":53.159,"RA_OF_ASC_NODE":305.5535,"ARG_OF_PERICENTER":93.5307,"MEAN_ANOMALY":266.5828,"EPHEMERIS_TYPE":0,"CLASSIFICATION_TYPE":"U","NORAD_CAT_ID":65409,"ELEMENT_SET_NO":999,"REV_AT_EPOCH":2698,"BSTAR":0.0022437,"MEAN_MOTION_DOT":0.00090708,"MEAN_MOTION_DDOT":0},{"OBJECT_NAME":"STARLINK-35024","OBJECT_ID":"2025-192G","EPOCH":"2026-02-22T00:13:53.746176","MEAN_MOTION":15.39613755,"ECCENTRICITY":0.0001071,"INCLINATION":53.1602,"RA_OF_ASC_NODE":305.8911,"ARG_OF_PERICENTER":75.9295,"MEAN_ANOMALY":284.1829,"EPHEMERIS_TYPE":0,"CLASSIFICATION_TYPE":"U","NORAD_CAT_ID":65410,"ELEMENT_SET_NO":999,"REV_AT_EPOCH":2697,"BSTAR":0.00024139,"MEAN_MOTION_DOT":9.266e-5,"MEAN_MOTION_DDOT":0},{"OBJECT_NAME":"STARLINK-34983","OBJECT_ID":"2025-192H","EPOCH":"2026-02-21T23:53:49.935840","MEAN_MOTION":15.39613107,"ECCENTRICITY":0.0001013,"INCLINATION":53.1578,"RA_OF_ASC_NODE":305.7964,"ARG_OF_PERICENTER":81.1541,"MEAN_ANOMALY":278.9579,"EPHEMERIS_TYPE":0,"CLASSIFICATION_TYPE":"U","NORAD_CAT_ID":65411,"ELEMENT_SET_NO":999,"REV_AT_EPOCH":2697,"BSTAR":0.00021165,"MEAN_MOTION_DOT":8.074e-5,"MEAN_MOTION_DDOT":0},{"OBJECT_NAME":"STARLINK-34992","OBJECT_ID":"2025-192J","EPOCH":"2026-02-22T16:55:21.603360","MEAN_MOTION":15.39741827,"ECCENTRICITY":0.0001007,"INCLINATION":53.1584,"RA_OF_ASC_NODE":302.4002,"ARG_OF_PERICENTER":128.3862,"MEAN_ANOMALY":231.7234,"EPHEMERIS_TYPE":0,"CLASSIFICATION_TYPE":"U","NORAD_CAT_ID":65412,"ELEMENT_SET_NO":999,"REV_AT_EPOCH":2706,"BSTAR":0.0023801,"MEAN_MOTION_DOT":0.00096399,"MEAN_MOTION_DDOT":0},{"OBJECT_NAME":"STARLINK-35003","OBJECT_ID":"2025-192K","EPOCH":"2026-02-21T04:45:21.767904","MEAN_MOTION":15.39671679,"ECCENTRICITY":0.0001277,"INCLINATION":53.1583,"RA_OF_ASC_NODE":309.3542,"ARG_OF_PERICENTER":94.1301,"MEAN_ANOMALY":265.985,"EPHEMERIS_TYPE":0,"CLASSIFICATION_TYPE":"U","NORAD_CAT_ID":65413,"ELEMENT_SET_NO":999,"REV_AT_EPOCH":2685,"BSTAR":0.0016273,"MEAN_MOTION_DOT":0.00065362,"MEAN_MOTION_DDOT":0},{"OBJECT_NAME":"STARLINK-34411","OBJECT_ID":"2025-192L","EPOCH":"2026-02-22T20:00:03.000384","MEAN_MOTION":15.72186859,"ECCENTRICITY":0.0011368,"INCLINATION":53.1423,"RA_OF_ASC_NODE":294.4121,"ARG_OF_PERICENTER":178.3377,"MEAN_ANOMALY":252.3338,"EPHEMERIS_TYPE":0,"CLASSIFICATION_TYPE":"U","NORAD_CAT_ID":65414,"ELEMENT_SET_NO":999,"REV_AT_EPOCH":592,"BSTAR":0.0035791,"MEAN_MOTION_DOT":0.00512243,"MEAN_MOTION_DDOT":0},{"OBJECT_NAME":"STARLINK-34238","OBJECT_ID":"2025-192M","EPOCH":"2026-02-22T20:00:03.000384","MEAN_MOTION":15.33389656,"ECCENTRICITY":0.0001243,"INCLINATION":53.1599,"RA_OF_ASC_NODE":301.6357,"ARG_OF_PERICENTER":88.7755,"MEAN_ANOMALY":345.5508,"EPHEMERIS_TYPE":0,"CLASSIFICATION_TYPE":"U","NORAD_CAT_ID":65415,"ELEMENT_SET_NO":999,"REV_AT_EPOCH":573,"BSTAR":-0.05751,"MEAN_MOTION_DOT":-0.01703529,"MEAN_MOTION_DDOT":0},{"OBJECT_NAME":"STARLINK-34855","OBJECT_ID":"2025-192N","EPOCH":"2026-02-22T20:00:03.000384","MEAN_MOTION":15.34771403,"ECCENTRICITY":0.0001068,"INCLINATION":53.1596,"RA_OF_ASC_NODE":301.7729,"ARG_OF_PERICENTER":104.3996,"MEAN_ANOMALY":260.5142,"EPHEMERIS_TYPE":0,"CLASSIFICATION_TYPE":"U","NORAD_CAT_ID":65416,"ELEMENT_SET_NO":999,"REV_AT_EPOCH":592,"BSTAR":-0.055078,"MEAN_MOTION_DOT":-0.01704966,"MEAN_MOTION_DDOT":0},{"OBJECT_NAME":"STARLINK-34255","OBJECT_ID":"2025-192P","EPOCH":"2026-02-22T20:00:03.000384","MEAN_MOTION":15.34343191,"ECCENTRICITY":0.0001368,"INCLINATION":53.1598,"RA_OF_ASC_NODE":301.5729,"ARG_OF_PERICENTER":90.8793,"MEAN_ANOMALY":14.815,"EPHEMERIS_TYPE":0,"CLASSIFICATION_TYPE":"U","NORAD_CAT_ID":65417,"ELEMENT_SET_NO":999,"REV_AT_EPOCH":588,"BSTAR":-0.056104,"MEAN_MOTION_DOT":-0.01712377,"MEAN_MOTION_DDOT":0},{"OBJECT_NAME":"STARLINK-34997","OBJECT_ID":"2025-192Q","EPOCH":"2026-02-22T05:13:54.844896","MEAN_MOTION":15.39623606,"ECCENTRICITY":0.0001139,"INCLINATION":53.1595,"RA_OF_ASC_NODE":305.0532,"ARG_OF_PERICENTER":88.3208,"MEAN_ANOMALY":271.7927,"EPHEMERIS_TYPE":0,"CLASSIFICATION_TYPE":"U","NORAD_CAT_ID":65418,"ELEMENT_SET_NO":999,"REV_AT_EPOCH":2700,"BSTAR":0.0010292,"MEAN_MOTION_DOT":0.00040995,"MEAN_MOTION_DDOT":0},{"OBJECT_NAME":"STARLINK-35085","OBJECT_ID":"2025-192R","EPOCH":"2026-02-22T16:01:33.641472","MEAN_MOTION":15.39645239,"ECCENTRICITY":0.0001292,"INCLINATION":53.1586,"RA_OF_ASC_NODE":302.884,"ARG_OF_PERICENTER":82.6446,"MEAN_ANOMALY":277.4706,"EPHEMERIS_TYPE":0,"CLASSIFICATION_TYPE":"U","NORAD_CAT_ID":65419,"ELEMENT_SET_NO":999,"REV_AT_EPOCH":2707,"BSTAR":0.0011042,"MEAN_MOTION_DOT":0.00044059,"MEAN_MOTION_DDOT":0},{"OBJECT_NAME":"STARLINK-35138","OBJECT_ID":"2025-192S","EPOCH":"2026-02-22T02:17:51.899712","MEAN_MOTION":15.37925516,"ECCENTRICITY":0.0001145,"INCLINATION":53.1604,"RA_OF_ASC_NODE":305.7151,"ARG_OF_PERICENTER":63.8052,"MEAN_ANOMALY":296.3069,"EPHEMERIS_TYPE":0,"CLASSIFICATION_TYPE":"U","NORAD_CAT_ID":65420,"ELEMENT_SET_NO":999,"REV_AT_EPOCH":2698,"BSTAR":0.0008051,"MEAN_MOTION_DOT":0.00030196,"MEAN_MOTION_DDOT":0},{"OBJECT_NAME":"STARLINK-35146","OBJECT_ID":"2025-192T","EPOCH":"2026-02-22T03:13:42.912480","MEAN_MOTION":15.39628198,"ECCENTRICITY":0.0001607,"INCLINATION":53.1587,"RA_OF_ASC_NODE":305.2439,"ARG_OF_PERICENTER":71.0524,"MEAN_ANOMALY":289.0655,"EPHEMERIS_TYPE":0,"CLASSIFICATION_TYPE":"U","NORAD_CAT_ID":65421,"ELEMENT_SET_NO":999,"REV_AT_EPOCH":2698,"BSTAR":0.00091722,"MEAN_MOTION_DOT":0.00036474,"MEAN_MOTION_DDOT":0},{"OBJECT_NAME":"STARLINK-35074","OBJECT_ID":"2025-192U","EPOCH":"2026-02-22T02:13:30.021312","MEAN_MOTION":15.39585316,"ECCENTRICITY":0.0001125,"INCLINATION":53.1591,"RA_OF_ASC_NODE":304.9759,"ARG_OF_PERICENTER":54.8751,"MEAN_ANOMALY":305.2359,"EPHEMERIS_TYPE":0,"CLASSIFICATION_TYPE":"U","NORAD_CAT_ID":65422,"ELEMENT_SET_NO":999,"REV_AT_EPOCH":2699,"BSTAR":0.00054247,"MEAN_MOTION_DOT":0.00021335,"MEAN_MOTION_DDOT":0},{"OBJECT_NAME":"STARLINK-34837","OBJECT_ID":"2025-192V","EPOCH":"2026-02-22T15:54:52.851744","MEAN_MOTION":15.39649666,"ECCENTRICITY":0.0002772,"INCLINATION":53.157,"RA_OF_ASC_NODE":302.8602,"ARG_OF_PERICENTER":42.0199,"MEAN_ANOMALY":318.1018,"EPHEMERIS_TYPE":0,"CLASSIFICATION_TYPE":"U","NORAD_CAT_ID":65423,"ELEMENT_SET_NO":999,"REV_AT_EPOCH":2707,"BSTAR":0.0010334,"MEAN_MOTION_DOT":0.00041203,"MEAN_MOTION_DDOT":0},{"OBJECT_NAME":"STARLINK-34670","OBJECT_ID":"2025-192W","EPOCH":"2026-02-22T01:33:31.386240","MEAN_MOTION":15.39622353,"ECCENTRICITY":0.0001237,"INCLINATION":53.1586,"RA_OF_ASC_NODE":305.5192,"ARG_OF_PERICENTER":84.8027,"MEAN_ANOMALY":275.3119,"EPHEMERIS_TYPE":0,"CLASSIFICATION_TYPE":"U","NORAD_CAT_ID":65424,"ELEMENT_SET_NO":999,"REV_AT_EPOCH":2698,"BSTAR":0.00063914,"MEAN_MOTION_DOT":0.00025252,"MEAN_MOTION_DDOT":0}]
