STARLINK-35022          
1 65409U 25192F   26053.06991524  .00090708  00000+0  22437-2 0  9998
2 65409  53.1590 305.5535 0001130  93.5307 266.5828 15.39716013 26985
STARLINK-35024          
1 65410U 25192G   26053.00964984  .00009266  00000+0  24139-3 0  9995
2 65410  53.1602 305.8911 0001071  75.9295 284.1829 15.39613755 26971
STARLINK-34983          
1 65411U 25192H   26052.99571685  .00008074  00000+0  21165-3 0  9997
2 65411  53.1578 305.7964 0001013  81.1541 278.9579 15.39613107 26974
STARLINK-34992          
1 65412U 25192J   26053.70511115  .00096399  00000+0  23801-2 0  9995
2 65412  53.1584 302.4002 0001007 128.3862 231.7234 15.39741827 27069
STARLINK-35003          
1 65413U 25192K   26052.19816861  .00065362  00000+0  16273-2 0  9995
2 65413  53.1583 309.3542 0001277  94.1301 265.9850 15.39671679 26857
STARLINK-34411          
1 65414U 25192L   26053.83336806  .00512243  00000+0  35791-2 0  9995
2 65414  53.1423 294.4121 0011368 178.3377 252.3338 15.72186859  5922
STARLINK-34238          
1 65415U 25192M   26053.83336806 -.01703529  00000+0 -57510-1 0  9990
2 65415  53.1599 301.6357 0001243  88.7755 345.5508 15.33389656  5734
STARLINK-34855          
1 65416U 25192N   26053.83336806 -.01704966  00000+0 -55078-1 0  9994
2 65416  53.1596 301.7729 0001068 104.3996 260.5142 15.34771403  5920
STARLINK-34255          
1 65417U 25192P   26053.83336806 -.01712377  00000+0 -56104-1 0  9991
2 65417  53.1598 301.5729 0001368  90.8793  14.8150 15.34343191  5881
STARLINK-34997          
1 65418U 25192Q   26053.21799589  .00040995  00000+0  10292-2 0  9991
2 65418  53.1595 305.0532 0001139  88.3208 271.7927 15.39623606 27000
STARLINK-35085          
1 65419U 25192R   26053.66775048  .00044059  00000+0  11042-2 0  9994
2 65419  53.1586 302.8840 0001292  82.6446 277.4706 15.39645239 27070
STARLINK-35138          
1 65420U 25192S   26053.09573958  .00030196  00000+0  80510-3 0  9993
2 65420  53.1604 305.7151 0001145  63.8052 296.3069 15.37925516 26989
STARLINK-35146          
1 65421U 25192T   26053.13452445  .00036474  00000+0  91722-3 0  9998
2 65421  53.1587 305.2439 0001607  71.0524 289.0655 15.39628198 26980
STARLINK-35074          
1 65422U 25192U   26053.09270858  .00021335  00000+0  54247-3 0  9991
2 65422  53.1591 304.9759 0001125  54.8751 305.2359 15.39585316 26990
STARLINK-34837          
1 65423U 25192V   26053.66311171  .00041203  00000+0  10334-2 0  9993
2 65423  53.1570 302.8602 0002772  42.0199 318.1018 15.39649666 27070
STARLINK-34670          
1 65424U 25192W   26053.06494660  .00025252  00000+0  63914-3 0  9992
2 65424  53.1586 305.5192 0001237  84.8027 275.3119 15.39622353 26980
